{
  "type": "FeatureCollection",
  "features": [
    {
      "type": "Feature",
      "properties": {
        "norad_id": 27954,
        "name": "GALAXY 13 (HORIZONS-1)",
        "group": "intelsat",
        "lat": 0.8256766341209318,
        "lon": 145.37366111608617,
        "alt_km": 35789.67943715704,
        "timestamp": "2025-12-18T13:51:49.328259+00:00",
        "meta_object_name": "GALAXY 13 (HORIZONS-1)",
        "meta_object_id": "2003-044A",
        "meta_epoch": "2025-12-18T02:18:36.407808",
        "meta_mean_motion": 1.00273938,
        "meta_eccentricity": 0.00021087,
        "meta_inclination": 0.95,
        "meta_ra_of_asc_node": 86.4036,
        "meta_arg_of_pericenter": 178.2321,
        "meta_mean_anomaly": 66.9903,
        "meta_ephemeris_type": 0,
        "meta_classification_type": "U",
        "meta_norad_cat_id": 27954,
        "meta_element_set_no": 999,
        "meta_rev_at_epoch": 4475,
        "meta_bstar": 0,
        "meta_mean_motion_dot": 1.57e-06,
        "meta_mean_motion_ddot": 0,
        "tle_line1": "1 27954U 03044A   25352.09625472  .00000157  00000+0  00000+0 0  9991",
        "tle_line2": "2 27954   0.9500  86.4036 0002108 178.2321  66.9903  1.00273938 44751"
      },
      "geometry": {
        "type": "Point",
        "coordinates": [
          145.37366111608617,
          0.8256766341209318
        ]
      }
    },
    {
      "type": "Feature",
      "properties": {
        "norad_id": 28358,
        "name": "INTELSAT 10-02",
        "group": "intelsat",
        "lat": -0.026465319957976588,
        "lon": -65.57902589185227,
        "alt_km": 35782.02363819652,
        "timestamp": "2025-12-18T13:51:49.328271+00:00",
        "meta_object_name": "INTELSAT 10-02",
        "meta_object_id": "2004-022A",
        "meta_epoch": "2025-12-18T02:29:38.637888",
        "meta_mean_motion": 1.00272153,
        "meta_eccentricity": 9.544e-05,
        "meta_inclination": 0.0227,
        "meta_ra_of_asc_node": 70.9832,
        "meta_arg_of_pericenter": 235.3439,
        "meta_mean_anomaly": 177.0954,
        "meta_ephemeris_type": 0,
        "meta_classification_type": "U",
        "meta_norad_cat_id": 28358,
        "meta_element_set_no": 999,
        "meta_rev_at_epoch": 7874,
        "meta_bstar": 0,
        "meta_mean_motion_dot": 1.4e-07,
        "meta_mean_motion_ddot": 0,
        "tle_line1": "1 28358U 04022A   25352.10391942  .00000014  00000+0  00000+0 0  9993",
        "tle_line2": "2 28358   0.0227  70.9832 0000954 235.3439 177.0954  1.00272153 78745"
      },
      "geometry": {
        "type": "Point",
        "coordinates": [
          -65.57902589185227,
          -0.026465319957976588
        ]
      }
    },
    {
      "type": "Feature",
      "properties": {
        "norad_id": 28626,
        "name": "XM-3 (RHYTHM)",
        "group": "intelsat",
        "lat": -0.1462395499236261,
        "lon": 21.958618441621354,
        "alt_km": 36153.48881097931,
        "timestamp": "2025-12-18T13:51:49.328284+00:00",
        "meta_object_name": "XM-3 (RHYTHM)",
        "meta_object_id": "2005-008A",
        "meta_epoch": "2025-12-18T04:57:38.619072",
        "meta_mean_motion": 0.98950393,
        "meta_eccentricity": 0.00018344,
        "meta_inclination": 0.1884,
        "meta_ra_of_asc_node": 81.8915,
        "meta_arg_of_pericenter": 277.9492,
        "meta_mean_anomaly": 249.976,
        "meta_ephemeris_type": 0,
        "meta_classification_type": "U",
        "meta_norad_cat_id": 28626,
        "meta_element_set_no": 999,
        "meta_rev_at_epoch": 4080,
        "meta_bstar": 0,
        "meta_mean_motion_dot": 2.6e-07,
        "meta_mean_motion_ddot": 0,
        "tle_line1": "1 28626U 05008A   25352.20669698  .00000026  00000+0  00000+0 0  9996",
        "tle_line2": "2 28626   0.1884  81.8915 0001834 277.9492 249.9760  0.98950393 40800"
      },
      "geometry": {
        "type": "Point",
        "coordinates": [
          21.958618441621354,
          -0.1462395499236261
        ]
      }
    },
    {
      "type": "Feature",
      "properties": {
        "norad_id": 28659,
        "name": "DIRECTV 8",
        "group": "intelsat",
        "lat": -0.013547466715488513,
        "lon": 176.32004086404888,
        "alt_km": 35787.79871735953,
        "timestamp": "2025-12-18T13:51:49.328296+00:00",
        "meta_object_name": "DIRECTV 8",
        "meta_object_id": "2005-019A",
        "meta_epoch": "2025-12-17T23:01:54.788160",
        "meta_mean_motion": 1.00272995,
        "meta_eccentricity": 0.00028611,
        "meta_inclination": 0.0186,
        "meta_ra_of_asc_node": 333.7811,
        "meta_arg_of_pericenter": 302.57,
        "meta_mean_anomaly": 36.9238,
        "meta_ephemeris_type": 0,
        "meta_classification_type": "U",
        "meta_norad_cat_id": 28659,
        "meta_element_set_no": 999,
        "meta_rev_at_epoch": 7525,
        "meta_bstar": 0,
        "meta_mean_motion_dot": 2.6e-07,
        "meta_mean_motion_ddot": 0,
        "tle_line1": "1 28659U 05019A   25351.95966190  .00000026  00000+0  00000+0 0  9992",
        "tle_line2": "2 28659   0.0186 333.7811 0002861 302.5700  36.9238  1.00272995 75252"
      },
      "geometry": {
        "type": "Point",
        "coordinates": [
          176.32004086404888,
          -0.013547466715488513
        ]
      }
    },
    {
      "type": "Feature",
      "properties": {
        "norad_id": 28702,
        "name": "GALAXY 28 (G-28)",
        "group": "intelsat",
        "lat": 2.2937166280542134,
        "lon": -153.31377859722713,
        "alt_km": 35781.29584512728,
        "timestamp": "2025-12-18T13:51:49.328308+00:00",
        "meta_object_name": "GALAXY 28 (G-28)",
        "meta_object_id": "2005-022A",
        "meta_epoch": "2025-12-18T06:06:32.738112",
        "meta_mean_motion": 1.00270657,
        "meta_eccentricity": 0.00029083,
        "meta_inclination": 2.8335,
        "meta_ra_of_asc_node": 81.2191,
        "meta_arg_of_pericenter": 192.4927,
        "meta_mean_anomaly": 176.342,
        "meta_ephemeris_type": 0,
        "meta_classification_type": "U",
        "meta_norad_cat_id": 28702,
        "meta_element_set_no": 999,
        "meta_rev_at_epoch": 5016,
        "meta_bstar": 0,
        "meta_mean_motion_dot": -1.64e-06,
        "meta_mean_motion_ddot": 0,
        "tle_line1": "1 28702U 05022A   25352.25454558 -.00000164  00000+0  00000+0 0  9993",
        "tle_line2": "2 28702   2.8335  81.2191 0002908 192.4927 176.3420  1.00270657 50160"
      },
      "geometry": {
        "type": "Point",
        "coordinates": [
          -153.31377859722713,
          2.2937166280542134
        ]
      }
    },
    {
      "type": "Feature",
      "properties": {
        "norad_id": 29236,
        "name": "GALAXY 16 (G-16)",
        "group": "intelsat",
        "lat": -0.01305437158084459,
        "lon": -163.64527730687925,
        "alt_km": 35782.11734815556,
        "timestamp": "2025-12-18T13:51:49.328320+00:00",
        "meta_object_name": "GALAXY 16 (G-16)",
        "meta_object_id": "2006-023A",
        "meta_epoch": "2025-12-18T06:05:02.963328",
        "meta_mean_motion": 1.00271603,
        "meta_eccentricity": 0.00024752,
        "meta_inclination": 0.0336,
        "meta_ra_of_asc_node": 214.3028,
        "meta_arg_of_pericenter": 49.4878,
        "meta_mean_anomaly": 175.5896,
        "meta_ephemeris_type": 0,
        "meta_classification_type": "U",
        "meta_norad_cat_id": 29236,
        "meta_element_set_no": 999,
        "meta_rev_at_epoch": 7115,
        "meta_bstar": 0,
        "meta_mean_motion_dot": -1.02e-06,
        "meta_mean_motion_ddot": 0,
        "tle_line1": "1 29236U 06023A   25352.25350652 -.00000102  00000+0  00000+0 0  9990",
        "tle_line2": "2 29236   0.0336 214.3028 0002475  49.4878 175.5896  1.00271603 71159"
      },
      "geometry": {
        "type": "Point",
        "coordinates": [
          -163.64527730687925,
          -0.01305437158084459
        ]
      }
    },
    {
      "type": "Feature",
      "properties": {
        "norad_id": 29494,
        "name": "DIRECTV 9S",
        "group": "intelsat",
        "lat": 1.8138130309591618,
        "lon": -165.84534311147456,
        "alt_km": 35783.397171868004,
        "timestamp": "2025-12-18T13:51:49.328332+00:00",
        "meta_object_name": "DIRECTV 9S",
        "meta_object_id": "2006-043A",
        "meta_epoch": "2025-12-18T05:59:44.154240",
        "meta_mean_motion": 1.00271862,
        "meta_eccentricity": 0.00028168,
        "meta_inclination": 1.9537,
        "meta_ra_of_asc_node": 83.1544,
        "meta_arg_of_pericenter": 189.3182,
        "meta_mean_anomaly": 163.3656,
        "meta_ephemeris_type": 0,
        "meta_classification_type": "U",
        "meta_norad_cat_id": 29494,
        "meta_element_set_no": 999,
        "meta_rev_at_epoch": 4956,
        "meta_bstar": 0,
        "meta_mean_motion_dot": -9e-07,
        "meta_mean_motion_ddot": 0,
        "tle_line1": "1 29494U 06043A   25352.24981660 -.00000090  00000+0  00000+0 0  9992",
        "tle_line2": "2 29494   1.9537  83.1544 0002816 189.3182 163.3656  1.00271862 49560"
      },
      "geometry": {
        "type": "Point",
        "coordinates": [
          -165.84534311147456,
          1.8138130309591618
        ]
      }
    }
  ]
}